{"type": "FeatureCollection", "features": [{"type": "Feature", "properties": {"norad_id": 24946, "name": "IRIDIUM 33", "group": "iridium-33-debris", "lat": 30.322676345092123, "lon": 74.18468546671596, "alt_km": 777.4243611989177, "timestamp": "2025-12-03T13:52:09.951010+00:00", "meta": {"OBJECT_NAME": "IRIDIUM 33", "OBJECT_ID": "1997-051C", "EPOCH": "2025-12-03T08:42:27.455328", "MEAN_MOTION": 14.35026123, "ECCENTRICITY": 0.00061213, "INCLINATION": 86.387, "RA_OF_ASC_NODE": 72.1571, "ARG_OF_PERICENTER": 236.6396, "MEAN_ANOMALY": 123.4215, "EPHEMERIS_TYPE": 0, "CLASSIFICATION_TYPE": "U", "NORAD_CAT_ID": 24946, "ELEMENT_SET_NO": 999, "REV_AT_EPOCH": 47700, "BSTAR": 0.00019168514, "MEAN_MOTION_DOT": 5.65e-06, "MEAN_MOTION_DDOT": 0}, "tle": {"line1": "1 24946U 97051C   25337.36281777  .00000565  00000+0  19169-3 0  9992", "line2": "2 24946  86.3870  72.1571 0006121 236.6396 123.4215 14.35026123477000"}}, "geometry": {"type": "Point", "coordinates": [74.18468546671596, 30.322676345092123]}}, {"type": "Feature", "properties": {"norad_id": 33773, "name": "IRIDIUM 33 DEB", "group": "iridium-33-debris", "lat": 76.46335667314322, "lon": 79.62375774821993, "alt_km": 741.8161278996731, "timestamp": "2025-12-03T13:52:09.951067+00:00", "meta": {"OBJECT_NAME": "IRIDIUM 33 DEB", "OBJECT_ID": "1997-051L", "EPOCH": "2025-12-02T19:12:34.458048", "MEAN_MOTION": 14.43219569, "ECCENTRICITY": 0.00114308, "INCLINATION": 86.4014, "RA_OF_ASC_NODE": 64.8005, "ARG_OF_PERICENTER": 177.1469, "MEAN_ANOMALY": 182.9799, "EPHEMERIS_TYPE": 0, "CLASSIFICATION_TYPE": "U", "NORAD_CAT_ID": 33773, "ELEMENT_SET_NO": 999, "REV_AT_EPOCH": 88204, "BSTAR": 0.00045843518, "MEAN_MOTION_DOT": 1.562e-05, "MEAN_MOTION_DDOT": 0}, "tle": {"line1": "1 33773U 97051L   25336.80039882  .00001562  00000+0  45844-3 0  9993", "line2": "2 33773  86.4014  64.8005 0011430 177.1469 182.9799 14.43219569882046"}}, "geometry": {"type": "Point", "coordinates": [79.62375774821993, 76.46335667314322]}}, {"type": "Feature", "properties": {"norad_id": 33775, "name": "IRIDIUM 33 DEB", "group": "iridium-33-debris", "lat": -39.581623566803394, "lon": -123.52260942435616, "alt_km": 752.7036139618749, "timestamp": "2025-12-03T13:52:09.951087+00:00", "meta": {"OBJECT_NAME": "IRIDIUM 33 DEB", "OBJECT_ID": "1997-051N", "EPOCH": "2025-12-03T04:47:18.934080", "MEAN_MOTION": 14.41433702, "ECCENTRICITY": 0.00131902, "INCLINATION": 86.3643, "RA_OF_ASC_NODE": 53.6257, "ARG_OF_PERICENTER": 185.0257, "MEAN_ANOMALY": 232.2988, "EPHEMERIS_TYPE": 0, "CLASSIFICATION_TYPE": "U", "NORAD_CAT_ID": 33775, "ELEMENT_SET_NO": 999, "REV_AT_EPOCH": 88003, "BSTAR": 0.00051484434, "MEAN_MOTION_DOT": 1.69e-05, "MEAN_MOTION_DDOT": 0}, "tle": {"line1": "1 33775U 97051N   25337.19952470  .00001690  00000+0  51484-3 0  9994", "line2": "2 33775  86.3643  53.6257 0013190 185.0257 232.2988 14.41433702880039"}}, "geometry": {"type": "Point", "coordinates": [-123.52260942435616, -39.581623566803394]}}, {"type": "Feature", "properties": {"norad_id": 33776, "name": "IRIDIUM 33 DEB", "group": "iridium-33-debris", "lat": -15.639488436360127, "lon": -94.36820199436781, "alt_km": 760.7537584449601, "timestamp": "2025-12-03T13:52:09.951102+00:00", "meta": {"OBJECT_NAME": "IRIDIUM 33 DEB", "OBJECT_ID": "1997-051P", "EPOCH": "2025-12-03T08:13:37.633152", "MEAN_MOTION": 14.38204762, "ECCENTRICITY": 0.00133494, "INCLINATION": 86.4037, "RA_OF_ASC_NODE": 84.7217, "ARG_OF_PERICENTER": 222.9162, "MEAN_ANOMALY": 196.257, "EPHEMERIS_TYPE": 0, "CLASSIFICATION_TYPE": "U", "NORAD_CAT_ID": 33776, "ELEMENT_SET_NO": 999, "REV_AT_EPOCH": 87947, "BSTAR": 0.00046319122, "MEAN_MOTION_DOT": 1.427e-05, "MEAN_MOTION_DDOT": 0}, "tle": {"line1": "1 33776U 97051P   25337.34279668  .00001427  00000+0  46319-3 0  9992", "line2": "2 33776  86.4037  84.7217 0013349 222.9162 196.2570 14.38204762879471"}}, "geometry": {"type": "Point", "coordinates": [-94.36820199436781, -15.639488436360127]}}, {"type": "Feature", "properties": {"norad_id": 33777, "name": "IRIDIUM 33 DEB", "group": "iridium-33-debris", "lat": 47.549949000980774, "lon": -144.7799359315961, "alt_km": 707.0825375360746, "timestamp": "2025-12-03T13:52:09.951115+00:00", "meta": {"OBJECT_NAME": "IRIDIUM 33 DEB", "OBJECT_ID": "1997-051Q", "EPOCH": "2025-12-03T05:00:48.827808", "MEAN_MOTION": 14.55491481, "ECCENTRICITY": 0.00051749, "INCLINATION": 86.3802, "RA_OF_ASC_NODE": 39.3487, "ARG_OF_PERICENTER": 293.9367, "MEAN_ANOMALY": 66.1298, "EPHEMERIS_TYPE": 0, "CLASSIFICATION_TYPE": "U", "NORAD_CAT_ID": 33777, "ELEMENT_SET_NO": 999, "REV_AT_EPOCH": 88395, "BSTAR": 0.0013356932, "MEAN_MOTION_DOT": 5.833e-05, "MEAN_MOTION_DDOT": 0}, "tle": {"line1": "1 33777U 97051Q   25337.20889847  .00005833  00000+0  13357-2 0  9994", "line2": "2 33777  86.3802  39.3487 0005174 293.9367  66.1298 14.55491481883953"}}, "geometry": {"type": "Point", "coordinates": [-144.7799359315961, 47.549949000980774]}}, {"type": "Feature", "properties": {"norad_id": 33850, "name": "IRIDIUM 33 DEB", "group": "iridium-33-debris", "lat": 1.8645490338935797, "lon": -146.00064061771687, "alt_km": 746.5221260921571, "timestamp": "2025-12-03T13:52:09.951128+00:00", "meta": {"OBJECT_NAME": "IRIDIUM 33 DEB", "OBJECT_ID": "1997-051T", "EPOCH": "2025-12-03T04:59:33.606240", "MEAN_MOTION": 14.42112566, "ECCENTRICITY": 0.00112002, "INCLINATION": 86.3425, "RA_OF_ASC_NODE": 34.2776, "ARG_OF_PERICENTER": 191.1628, "MEAN_ANOMALY": 227.9029, "EPHEMERIS_TYPE": 0, "CLASSIFICATION_TYPE": "U", "NORAD_CAT_ID": 33850, "ELEMENT_SET_NO": 999, "REV_AT_EPOCH": 88015, "BSTAR": 0.00061824469, "MEAN_MOTION_DOT": 2.052e-05, "MEAN_MOTION_DDOT": 0}, "tle": {"line1": "1 33850U 97051T   25337.20802785  .00002052  00000+0  61824-3 0  9995", "line2": "2 33850  86.3425  34.2776 0011200 191.1628 227.9029 14.42112566880155"}}, "geometry": {"type": "Point", "coordinates": [-146.00064061771687, 1.8645490338935797]}}, {"type": "Feature", "properties": {"norad_id": 33853, "name": "IRIDIUM 33 DEB", "group": "iridium-33-debris", "lat": 1.28528447597917, "lon": 173.73977823920154, "alt_km": 885.4633634367519, "timestamp": "2025-12-03T13:52:09.951141+00:00", "meta": {"OBJECT_NAME": "IRIDIUM 33 DEB", "OBJECT_ID": "1997-051W", "EPOCH": "2025-12-03T07:53:56.245344", "MEAN_MOTION": 13.98959317, "ECCENTRICITY": 0.02068146, "INCLINATION": 86.0004, "RA_OF_ASC_NODE": 353.9387, "ARG_OF_PERICENTER": 264.9104, "MEAN_ANOMALY": 103.9379, "EPHEMERIS_TYPE": 0, "CLASSIFICATION_TYPE": "U", "NORAD_CAT_ID": 33853, "ELEMENT_SET_NO": 999, "REV_AT_EPOCH": 85214, "BSTAR": 0.0029890175, "MEAN_MOTION_DOT": 5.198e-05, "MEAN_MOTION_DDOT": 0}, "tle": {"line1": "1 33853U 97051W   25337.32912321  .00005198  00000+0  29890-2 0  9999", "line2": "2 33853  86.0004 353.9387 0206814 264.9104 103.9379 13.98959317852144"}}, "geometry": {"type": "Point", "coordinates": [173.73977823920154, 1.28528447597917]}}, {"type": "Feature", "properties": {"norad_id": 33860, "name": "IRIDIUM 33 DEB", "group": "iridium-33-debris", "lat": 3.689010104887819, "lon": 31.526348146838224, "alt_km": 667.1868234171443, "timestamp": "2025-12-03T13:52:09.951153+00:00", "meta": {"OBJECT_NAME": "IRIDIUM 33 DEB", "OBJECT_ID": "1997-051AD", "EPOCH": "2025-12-03T04:19:16.479840", "MEAN_MOTION": 14.67156816, "ECCENTRICITY": 0.00086215, "INCLINATION": 86.385, "RA_OF_ASC_NODE": 31.4687, "ARG_OF_PERICENTER": 29.2665, "MEAN_ANOMALY": 34.6506, "EPHEMERIS_TYPE": 0, "CLASSIFICATION_TYPE": "U", "NORAD_CAT_ID": 33860, "ELEMENT_SET_NO": 999, "REV_AT_EPOCH": 88582, "BSTAR": 0.001742809, "MEAN_MOTION_DOT": 9.83e-05, "MEAN_MOTION_DDOT": 0}, "tle": {"line1": "1 33860U 97051AD  25337.18005185  .00009830  00000+0  17428-2 0  9993", "line2": "2 33860  86.3850  31.4687 0008621  29.2665  34.6506 14.67156816885828"}}, "geometry": {"type": "Point", "coordinates": [31.526348146838224, 3.689010104887819]}}, {"type": "Feature", "properties": {"norad_id": 33862, "name": "IRIDIUM 33 DEB", "group": "iridium-33-debris", "lat": -30.01800998214755, "lon": 39.49088655159161, "alt_km": 693.8246601449237, "timestamp": "2025-12-03T13:52:09.951165+00:00", "meta": {"OBJECT_NAME": "IRIDIUM 33 DEB", "OBJECT_ID": "1997-051AF", "EPOCH": "2025-12-03T04:17:47.183712", "MEAN_MOTION": 14.69210658, "ECCENTRICITY": 0.00540854, "INCLINATION": 86.4104, "RA_OF_ASC_NODE": 41.7451, "ARG_OF_PERICENTER": 101.0892, "MEAN_ANOMALY": 281.076, "EPHEMERIS_TYPE": 0, "CLASSIFICATION_TYPE": "U", "NORAD_CAT_ID": 33862, "ELEMENT_SET_NO": 999, "REV_AT_EPOCH": 88683, "BSTAR": 0.0018597954, "MEAN_MOTION_DOT": 0.00011231, "MEAN_MOTION_DDOT": 0}, "tle": {"line1": "1 33862U 97051AF  25337.17901833  .00011231  00000+0  18598-2 0  9996", "line2": "2 33862  86.4104  41.7451 0054085 101.0892 281.0760 14.69210658886831"}}, "geometry": {"type": "Point", "coordinates": [39.49088655159161, -30.01800998214755]}}, {"type": "Feature", "properties": {"norad_id": 33866, "name": "IRIDIUM 33 DEB", "group": "iridium-33-debris", "lat": 47.428130626255424, "lon": 100.95071677595217, "alt_km": 868.5287421389594, "timestamp": "2025-12-03T13:52:09.951177+00:00", "meta": {"OBJECT_NAME": "IRIDIUM 33 DEB", "OBJECT_ID": "1997-051AK", "EPOCH": "2025-12-03T08:50:48.902784", "MEAN_MOTION": 14.25219287, "ECCENTRICITY": 0.01137108, "INCLINATION": 86.2997, "RA_OF_ASC_NODE": 96.9997, "ARG_OF_PERICENTER": 191.2792, "MEAN_ANOMALY": 224.088, "EPHEMERIS_TYPE": 0, "CLASSIFICATION_TYPE": "U", "NORAD_CAT_ID": 33866, "ELEMENT_SET_NO": 999, "REV_AT_EPOCH": 86677, "BSTAR": 0.0010230104, "MEAN_MOTION_DOT": 2.59e-05, "MEAN_MOTION_DDOT": 0}, "tle": {"line1": "1 33866U 97051AK  25337.36862156  .00002590  00000+0  10230-2 0  9998", "line2": "2 33866  86.2997  96.9997 0113710 191.2792 224.0880 14.25219287866771"}}, "geometry": {"type": "Point", "coordinates": [100.95071677595217, 47.428130626255424]}}]}